{
    "links": {
        "self": "http://www.neowsapp.com/rest/v1/neo/3720884?api_key=iIulBulltgU6a56xZRHN4H3l9WmuAYTsLGpBGhQ2"
    },
    "id": "3720884",
    "neo_reference_id": "3720884",
    "name": "(2015 KV157)",
    "designation": "2015 KV157",
    "nasa_jpl_url": "http://ssd.jpl.nasa.gov/sbdb.cgi?sstr=3720884",
    "absolute_magnitude_h": 26.0,
    "estimated_diameter": {
        "kilometers": {
            "estimated_diameter_min": 0.0167708462,
            "estimated_diameter_max": 0.0375007522
        },
        "meters": {
            "estimated_diameter_min": 16.7708462163,
            "estimated_diameter_max": 37.5007521798
        },
        "miles": {
            "estimated_diameter_min": 0.0104209175,
            "estimated_diameter_max": 0.0233018799
        },
        "feet": {
            "estimated_diameter_min": 55.0224631002,
            "estimated_diameter_max": 123.0339677816
        }
    },
    "is_potentially_hazardous_asteroid": false,
    "close_approach_data": [
        {
            "close_approach_date": "2015-05-28",
            "close_approach_date_full": "2015-May-28 09:14",
            "epoch_date_close_approach": 1432804440000,
            "relative_velocity": {
                "kilometers_per_second": "10.3843721171",
                "kilometers_per_hour": "37383.7396216601",
                "miles_per_hour": "23228.8019888032"
            },
            "miss_distance": {
                "astronomical": "0.0371339127",
                "lunar": "14.4450920403",
                "kilometers": "5555154.244685949",
                "miles": "3451812.7849621362"
            },
            "orbiting_body": "Earth"
        }
    ],
    "orbital_data": {
        "orbit_id": "4",
        "orbit_determination_date": "2019-07-18 07:27:40",
        "first_observation_date": "2015-05-20",
        "last_observation_date": "2015-05-22",
        "data_arc_in_days": 2,
        "observations_used": 18,
        "orbit_uncertainty": "9",
        "minimum_orbit_intersection": ".0189196",
        "jupiter_tisserand_invariant": "3.562",
        "epoch_osculation": "2457163.5",
        "eccentricity": ".5278082096705705",
        "semi_major_axis": "2.086583132222339",
        "inclination": "6.638230944546576",
        "ascending_node_longitude": "64.29573414125873",
        "orbital_period": "1100.91037680883",
        "perihelion_distance": ".9852674248752549",
        "perihelion_argument": "214.9659971555606",
        "aphelion_distance": "3.187898839569423",
        "perihelion_time": "2457196.779133825541",
        "mean_anomaly": "349.1176535078885",
        "mean_motion": ".3270020953417836",
        "equinox": "J2000",
        "orbit_class": {
            "orbit_class_type": "APO",
            "orbit_class_description": "Near-Earth asteroid orbits which cross the Earth’s orbit similar to that of 1862 Apollo",
            "orbit_class_range": "a (semi-major axis) > 1.0 AU; q (perihelion) < 1.017 AU"
        }
    },
    "is_sentry_object": false
}